[{"OBJECT_NAME":"STARLINK-5021","OBJECT_ID":"2022-119S","EPOCH":"2026-03-09T20:23:13.321536","MEAN_MOTION":15.08824096,"ECCENTRICITY":0.00016356,"INCLINATION":53.2152,"RA_OF_ASC_NODE":273.1611,"ARG_OF_PERICENTER":78.2188,"MEAN_ANOMALY":281.8987,"EPHEMERIS_TYPE":0,"CLASSIFICATION_TYPE":"U","NORAD_CAT_ID":53902,"ELEMENT_SET_NO":999,"REV_AT_EPOCH":19241,"BSTAR":0.0003580786,"MEAN_MOTION_DOT":5.413e-5,"MEAN_MOTION_DDOT":0},{"OBJECT_NAME":"OBJECT H","OBJECT_ID":"2017-042H","EPOCH":"2026-03-09T21:54:40.929408","MEAN_MOTION":15.07257911,"ECCENTRICITY":0.00117342,"INCLINATION":97.4058,"RA_OF_ASC_NODE":233.05,"ARG_OF_PERICENTER":93.954,"MEAN_ANOMALY":266.303,"EPHEMERIS_TYPE":0,"CLASSIFICATION_TYPE":"U","NORAD_CAT_ID":42832,"ELEMENT_SET_NO":999,"REV_AT_EPOCH":47198,"BSTAR":0.00041037265,"MEAN_MOTION_DOT":6.138e-5,"MEAN_MOTION_DDOT":0}]
